[{"OBJECT_NAME":"SL-8 R/B","OBJECT_ID":"1988-053B","EPOCH":"2026-04-14T06:32:09.421728","MEAN_MOTION":14.38937932,"ECCENTRICITY":0.00210402,"INCLINATION":74.0485,"RA_OF_ASC_NODE":46.8725,"ARG_OF_PERICENTER":220.9825,"MEAN_ANOMALY":300.695,"EPHEMERIS_TYPE":0,"CLASSIFICATION_TYPE":"U","NORAD_CAT_ID":19257,"ELEMENT_SET_NO":999,"REV_AT_EPOCH":98171,"BSTAR":4.1624345e-5,"MEAN_MOTION_DOT":1.02e-6,"MEAN_MOTION_DDOT":0},{"OBJECT_NAME":"COSMOS 1975","OBJECT_ID":"1988-093A","EPOCH":"2026-04-14T05:04:30.574272","MEAN_MOTION":15.28543872,"ECCENTRICITY":0.00129182,"INCLINATION":82.5169,"RA_OF_ASC_NODE":82.0034,"ARG_OF_PERICENTER":52.7101,"MEAN_ANOMALY":307.5314,"EPHEMERIS_TYPE":0,"CLASSIFICATION_TYPE":"U","NORAD_CAT_ID":19573,"ELEMENT_SET_NO":999,"REV_AT_EPOCH":2483,"BSTAR":0.00011204066,"MEAN_MOTION_DOT":3.152e-5,"MEAN_MOTION_DDOT":0},{"OBJECT_NAME":"SL-14 R/B","OBJECT_ID":"1988-093B","EPOCH":"2026-04-14T04:09:33.996960","MEAN_MOTION":14.85697056,"ECCENTRICITY":0.00191193,"INCLINATION":82.5346,"RA_OF_ASC_NODE":8.743,"ARG_OF_PERICENTER":281.8526,"MEAN_ANOMALY":230.56,"EPHEMERIS_TYPE":0,"CLASSIFICATION_TYPE":"U","NORAD_CAT_ID":19574,"ELEMENT_SET_NO":999,"REV_AT_EPOCH":628,"BSTAR":2.6687639e-5,"MEAN_MOTION_DOT":2.56e-6,"MEAN_MOTION_DDOT":0},{"OBJECT_NAME":"SL-16 R/B","OBJECT_ID":"1988-102B","EPOCH":"2026-04-14T05:20:06.728640","MEAN_MOTION":14.16160052,"ECCENTRICITY":0.00159827,"INCLINATION":70.9987,"RA_OF_ASC_NODE":76.7289,"ARG_OF_PERICENTER":310.4718,"MEAN_ANOMALY":49.5011,"EPHEMERIS_TYPE":0,"CLASSIFICATION_TYPE":"U","NORAD_CAT_ID":19650,"ELEMENT_SET_NO":999,"REV_AT_EPOCH":93192,"BSTAR":3.782678e-6,"MEAN_MOTION_DOT":-4.0e-7,"MEAN_MOTION_DDOT":0},{"OBJECT_NAME":"INTERCOSMOS 24","OBJECT_ID":"1989-080A","EPOCH":"2026-04-14T05:31:40.439424","MEAN_MOTION":12.59596197,"ECCENTRICITY":0.11872504,"INCLINATION":82.6023,"RA_OF_ASC_NODE":81.2544,"ARG_OF_PERICENTER":210.2702,"MEAN_ANOMALY":142.438,"EPHEMERIS_TYPE":0,"CLASSIFICATION_TYPE":"U","NORAD_CAT_ID":20261,"ELEMENT_SET_NO":999,"REV_AT_EPOCH":67127,"BSTAR":8.1406076e-5,"MEAN_MOTION_DOT":2.86e-6,"MEAN_MOTION_DDOT":0},{"OBJECT_NAME":"SL-14 R/B","OBJECT_ID":"1989-080C","EPOCH":"2026-04-14T03:54:23.347008","MEAN_MOTION":12.5052393,"ECCENTRICITY":0.12309624,"INCLINATION":82.5927,"RA_OF_ASC_NODE":150.4232,"ARG_OF_PERICENTER":103.7097,"MEAN_ANOMALY":270.3805,"EPHEMERIS_TYPE":0,"CLASSIFICATION_TYPE":"U","NORAD_CAT_ID":20262,"ELEMENT_SET_NO":999,"REV_AT_EPOCH":66458,"BSTAR":5.6728375e-5,"MEAN_MOTION_DOT":2.22e-6,"MEAN_MOTION_DDOT":0},{"OBJECT_NAME":"DELTA 1 R/B","OBJECT_ID":"1989-089B","EPOCH":"2026-04-14T06:44:22.889472","MEAN_MOTION":14.50691913,"ECCENTRICITY":0.00693557,"INCLINATION":97.0676,"RA_OF_ASC_NODE":306.0507,"ARG_OF_PERICENTER":11.3508,"MEAN_ANOMALY":348.9235,"EPHEMERIS_TYPE":0,"CLASSIFICATION_TYPE":"U","NORAD_CAT_ID":20323,"ELEMENT_SET_NO":999,"REV_AT_EPOCH":90089,"BSTAR":5.1007604e-5,"MEAN_MOTION_DOT":1.71e-6,"MEAN_MOTION_DDOT":0},{"OBJECT_NAME":"ARIANE 40 R/B","OBJECT_ID":"1990-005H","EPOCH":"2026-04-14T02:45:11.407104","MEAN_MOTION":14.39894115,"ECCENTRICITY":0.00114061,"INCLINATION":98.3014,"RA_OF_ASC_NODE":163.7078,"ARG_OF_PERICENTER":98.4699,"MEAN_ANOMALY":261.7783,"EPHEMERIS_TYPE":0,"CLASSIFICATION_TYPE":"U","NORAD_CAT_ID":20443,"ELEMENT_SET_NO":999,"REV_AT_EPOCH":89790,"BSTAR":5.820315e-5,"MEAN_MOTION_DOT":1.41e-6,"MEAN_MOTION_DDOT":0},{"OBJECT_NAME":"DELTA 2 R/B(1)","OBJECT_ID":"1990-008B","EPOCH":"2026-04-14T05:59:21.528672","MEAN_MOTION":15.60816136,"ECCENTRICITY":0.00761622,"INCLINATION":35.6028,"RA_OF_ASC_NODE":300.6309,"ARG_OF_PERICENTER":233.434,"MEAN_ANOMALY":125.937,"EPHEMERIS_TYPE":0,"CLASSIFICATION_TYPE":"U","NORAD_CAT_ID":20453,"ELEMENT_SET_NO":999,"REV_AT_EPOCH":93168,"BSTAR":0.00035455983,"MEAN_MOTION_DOT":0.00035432,"MEAN_MOTION_DDOT":0},{"OBJECT_NAME":"COSMOS 2058","OBJECT_ID":"1990-010A","EPOCH":"2026-04-14T04:45:46.213920","MEAN_MOTION":15.11652033,"ECCENTRICITY":0.00089076,"INCLINATION":82.4726,"RA_OF_ASC_NODE":12.4437,"ARG_OF_PERICENTER":204.0491,"MEAN_ANOMALY":156.0324,"EPHEMERIS_TYPE":0,"CLASSIFICATION_TYPE":"U","NORAD_CAT_ID":20465,"ELEMENT_SET_NO":999,"REV_AT_EPOCH":94760,"BSTAR":8.8177612e-5,"MEAN_MOTION_DOT":1.529e-5,"MEAN_MOTION_DDOT":0},{"OBJECT_NAME":"SL-14 R/B","OBJECT_ID":"1990-010B","EPOCH":"2026-04-14T07:09:36.682272","MEAN_MOTION":14.8360473,"ECCENTRICITY":0.00198553,"INCLINATION":82.5023,"RA_OF_ASC_NODE":233.935,"ARG_OF_PERICENTER":178.2921,"MEAN_ANOMALY":181.8366,"EPHEMERIS_TYPE":0,"CLASSIFICATION_TYPE":"U","NORAD_CAT_ID":20466,"ELEMENT_SET_NO":999,"REV_AT_EPOCH":93376,"BSTAR":3.4156014e-5,"MEAN_MOTION_DOT":3.06e-6,"MEAN_MOTION_DDOT":0},{"OBJECT_NAME":"SL-14 R/B","OBJECT_ID":"1990-018B","EPOCH":"2026-04-14T05:09:58.584960","MEAN_MOTION":14.82179147,"ECCENTRICITY":0.00155869,"INCLINATION":82.5242,"RA_OF_ASC_NODE":189.895,"ARG_OF_PERICENTER":340.0242,"MEAN_ANOMALY":20.036,"EPHEMERIS_TYPE":0,"CLASSIFICATION_TYPE":"U","NORAD_CAT_ID":20511,"ELEMENT_SET_NO":999,"REV_AT_EPOCH":92784,"BSTAR":2.4865471e-5,"MEAN_MOTION_DOT":2.22e-6,"MEAN_MOTION_DDOT":0},{"OBJECT_NAME":"HST","OBJECT_ID":"1990-037B","EPOCH":"2026-04-14T05:40:15.849984","MEAN_MOTION":15.30044126,"ECCENTRICITY":0.00022714,"INCLINATION":28.4729,"RA_OF_ASC_NODE":157.4075,"ARG_OF_PERICENTER":151.2476,"MEAN_ANOMALY":208.8245,"EPHEMERIS_TYPE":0,"CLASSIFICATION_TYPE":"U","NORAD_CAT_ID":20580,"ELEMENT_SET_NO":999,"REV_AT_EPOCH":77876,"BSTAR":0.00012299004,"MEAN_MOTION_DOT":3.908e-5,"MEAN_MOTION_DDOT":0},{"OBJECT_NAME":"SL-16 R/B","OBJECT_ID":"1990-046B","EPOCH":"2026-04-13T21:38:22.989408","MEAN_MOTION":14.1501753,"ECCENTRICITY":0.0016534,"INCLINATION":70.9994,"RA_OF_ASC_NODE":223.9576,"ARG_OF_PERICENTER":253.8533,"MEAN_ANOMALY":106.077,"EPHEMERIS_TYPE":0,"CLASSIFICATION_TYPE":"U","NORAD_CAT_ID":20625,"ELEMENT_SET_NO":999,"REV_AT_EPOCH":85337,"BSTAR":-0.00011838,"MEAN_MOTION_DOT":-2.77e-6,"MEAN_MOTION_DDOT":0},{"OBJECT_NAME":"COSMOS 2084","OBJECT_ID":"1990-055A","EPOCH":"2026-04-14T01:14:51.498816","MEAN_MOTION":15.05863939,"ECCENTRICITY":0.0011389,"INCLINATION":62.7901,"RA_OF_ASC_NODE":214.9467,"ARG_OF_PERICENTER":203.371,"MEAN_ANOMALY":156.6875,"EPHEMERIS_TYPE":0,"CLASSIFICATION_TYPE":"U","NORAD_CAT_ID":20663,"ELEMENT_SET_NO":999,"REV_AT_EPOCH":94164,"BSTAR":0.00010845624,"MEAN_MOTION_DOT":1.381e-5,"MEAN_MOTION_DDOT":0},{"OBJECT_NAME":"SL-6 R/B(2)","OBJECT_ID":"1990-055D","EPOCH":"2026-04-14T03:35:52.522080","MEAN_MOTION":15.03757695,"ECCENTRICITY":0.003058,"INCLINATION":62.7806,"RA_OF_ASC_NODE":133.2465,"ARG_OF_PERICENTER":354.6796,"MEAN_ANOMALY":5.3973,"EPHEMERIS_TYPE":0,"CLASSIFICATION_TYPE":"U","NORAD_CAT_ID":20666,"ELEMENT_SET_NO":999,"REV_AT_EPOCH":94352,"BSTAR":8.1897429e-5,"MEAN_MOTION_DOT":9.35e-6,"MEAN_MOTION_DDOT":0},{"OBJECT_NAME":"SL-8 R/B","OBJECT_ID":"1990-078B","EPOCH":"2026-04-14T05:52:00.694272","MEAN_MOTION":14.90049658,"ECCENTRICITY":0.03566532,"INCLINATION":82.9049,"RA_OF_ASC_NODE":219.3074,"ARG_OF_PERICENTER":253.9043,"MEAN_ANOMALY":102.2644,"EPHEMERIS_TYPE":0,"CLASSIFICATION_TYPE":"U","NORAD_CAT_ID":20775,"ELEMENT_SET_NO":999,"REV_AT_EPOCH":81459,"BSTAR":0.00024021166,"MEAN_MOTION_DOT":8.144e-5,"MEAN_MOTION_DDOT":0}]
