SL-8 R/B                
1 19257U 88053B   26104.27233127  .00000102  00000+0  41624-4 0  9991
2 19257  74.0485  46.8725 0021040 220.9825 300.6950 14.38937932981719
COSMOS 1975             
1 19573U 88093A   26104.21146498  .00003152  00000+0  11204-3 0  9992
2 19573  82.5169  82.0034 0012918  52.7101 307.5314 15.28543872 24837
SL-14 R/B               
1 19574U 88093B   26104.17331015  .00000256  00000+0  26688-4 0  9994
2 19574  82.5346   8.7430 0019119 281.8526 230.5600 14.85697056  6284
SL-16 R/B               
1 19650U 88102B   26104.22230010 -.00000040  00000+0  37827-5 0  9999
2 19650  70.9987  76.7289 0015982 310.4718  49.5011 14.16160052931921
INTERCOSMOS 24          
1 20261U 89080A   26104.23032916  .00000286  00000+0  81406-4 0  9993
2 20261  82.6023  81.2544 1187250 210.2702 142.4380 12.59596197671275
SL-14 R/B               
1 20262U 89080C   26104.16277022  .00000222  00000+0  56728-4 0  9994
2 20262  82.5927 150.4232 1230962 103.7097 270.3805 12.50523930664588
DELTA 1 R/B             
1 20323U 89089B   26104.28082048  .00000171  00000+0  51008-4 0  9995
2 20323  97.0676 306.0507 0069355  11.3508 348.9235 14.50691913900893
ARIANE 40 R/B           
1 20443U 90005H   26104.11471536  .00000141  00000+0  58203-4 0  9995
2 20443  98.3014 163.7078 0011406  98.4699 261.7783 14.39894115897901
DELTA 2 R/B(1)          
1 20453U 90008B   26104.24955473  .00035432  00000+0  35456-3 0  9995
2 20453  35.6028 300.6309 0076162 233.4340 125.9370 15.60816136931683
COSMOS 2058             
1 20465U 90010A   26104.19845155  .00001529  00000+0  88178-4 0  9990
2 20465  82.4726  12.4437 0008907 204.0491 156.0324 15.11652033947607
SL-14 R/B               
1 20466U 90010B   26104.29834123  .00000306  00000+0  34156-4 0  9994
2 20466  82.5023 233.9350 0019855 178.2921 181.8366 14.83604730933760
SL-14 R/B               
1 20511U 90018B   26104.21526140  .00000222  00000+0  24865-4 0  9995
2 20511  82.5242 189.8950 0015586 340.0242  20.0360 14.82179147927849
HST                     
1 20580U 90037B   26104.23629456  .00003908  00000+0  12299-3 0  9999
2 20580  28.4729 157.4075 0002271 151.2476 208.8245 15.30044126778766
SL-16 R/B               
1 20625U 90046B   26103.90165497 -.00000277  00000+0 -11838-3 0  9998
2 20625  70.9994 223.9576 0016534 253.8533 106.0770 14.15017530853371
COSMOS 2084             
1 20663U 90055A   26104.05198494  .00001381  00000+0  10846-3 0  9993
2 20663  62.7901 214.9467 0011389 203.3710 156.6875 15.05863939941646
SL-6 R/B(2)             
1 20666U 90055D   26104.14991345  .00000935  00000+0  81897-4 0  9991
2 20666  62.7806 133.2465 0030580 354.6796   5.3973 15.03757695943529
SL-8 R/B                
1 20775U 90078B   26104.24445248  .00008144  00000+0  24021-3 0  9999
2 20775  82.9049 219.3074 0356653 253.9043 102.2644 14.90049658814597
